{
    "links": {
        "self": "http://www.neowsapp.com/rest/v1/neo/3752779?api_key=iIulBulltgU6a56xZRHN4H3l9WmuAYTsLGpBGhQ2"
    },
    "id": "3752779",
    "neo_reference_id": "3752779",
    "name": "(2016 JZ5)",
    "designation": "2016 JZ5",
    "nasa_jpl_url": "http://ssd.jpl.nasa.gov/sbdb.cgi?sstr=3752779",
    "absolute_magnitude_h": 27.0,
    "estimated_diameter": {
        "kilometers": {
            "estimated_diameter_min": 0.0105816886,
            "estimated_diameter_max": 0.023661375
        },
        "meters": {
            "estimated_diameter_min": 10.5816885933,
            "estimated_diameter_max": 23.6613750114
        },
        "miles": {
            "estimated_diameter_min": 0.0065751544,
            "estimated_diameter_max": 0.0147024923
        },
        "feet": {
            "estimated_diameter_min": 34.7168272045,
            "estimated_diameter_max": 77.6291855923
        }
    },
    "is_potentially_hazardous_asteroid": false,
    "close_approach_data": [
        {
            "close_approach_date": "1995-01-31",
            "close_approach_date_full": "1995-Jan-31 16:12",
            "epoch_date_close_approach": 791568720000,
            "relative_velocity": {
                "kilometers_per_second": "16.4781785233",
                "kilometers_per_hour": "59321.4426840186",
                "miles_per_hour": "36860.0375388559"
            },
            "miss_distance": {
                "astronomical": "0.3428954086",
                "lunar": "133.3863139454",
                "kilometers": "51296422.759339682",
                "miles": "31874119.0801123316"
            },
            "orbiting_body": "Earth"
        },
        {
            "close_approach_date": "2016-05-02",
            "close_approach_date_full": "2016-May-02 07:47",
            "epoch_date_close_approach": 1462175220000,
            "relative_velocity": {
                "kilometers_per_second": "7.8248514665",
                "kilometers_per_hour": "28169.4652794318",
                "miles_per_hour": "17503.4102454336"
            },
            "miss_distance": {
                "astronomical": "0.0078150769",
                "lunar": "3.0400649141",
                "kilometers": "1169118.858126203",
                "miles": "726456.7721914814"
            },
            "orbiting_body": "Earth"
        },
        {
            "close_approach_date": "2018-02-11",
            "close_approach_date_full": "2018-Feb-11 05:46",
            "epoch_date_close_approach": 1518327960000,
            "relative_velocity": {
                "kilometers_per_second": "12.1714188485",
                "kilometers_per_hour": "43817.1078547444",
                "miles_per_hour": "27226.2468222993"
            },
            "miss_distance": {
                "astronomical": "0.2126755484",
                "lunar": "82.7307883276",
                "kilometers": "31815809.041721908",
                "miles": "19769427.0180140104"
            },
            "orbiting_body": "Earth"
        },
        {
            "close_approach_date": "2051-01-30",
            "close_approach_date_full": "2051-Jan-30 17:45",
            "epoch_date_close_approach": 2558713500000,
            "relative_velocity": {
                "kilometers_per_second": "17.7112105213",
                "kilometers_per_hour": "63760.357876604",
                "miles_per_hour": "39618.2068150488"
            },
            "miss_distance": {
                "astronomical": "0.3800547315",
                "lunar": "147.8412905535",
                "kilometers": "56855378.315821905",
                "miles": "35328293.890696089"
            },
            "orbiting_body": "Earth"
        },
        {
            "close_approach_date": "2082-02-05",
            "close_approach_date_full": "2082-Feb-05 03:47",
            "epoch_date_close_approach": 3537488820000,
            "relative_velocity": {
                "kilometers_per_second": "14.8998682577",
                "kilometers_per_hour": "53639.5257278593",
                "miles_per_hour": "33329.5153057357"
            },
            "miss_distance": {
                "astronomical": "0.2926871352",
                "lunar": "113.8552955928",
                "kilometers": "43785372.002322024",
                "miles": "27206968.5583469712"
            },
            "orbiting_body": "Earth"
        }
    ],
    "orbital_data": {
        "orbit_id": "5",
        "orbit_determination_date": "2017-04-06 08:26:08",
        "first_observation_date": "2016-05-04",
        "last_observation_date": "2016-05-13",
        "data_arc_in_days": 9,
        "observations_used": 63,
        "orbit_uncertainty": "7",
        "minimum_orbit_intersection": ".00118253",
        "jupiter_tisserand_invariant": "4.350",
        "epoch_osculation": "2459000.5",
        "eccentricity": ".3794783133486858",
        "semi_major_axis": "1.555283701538275",
        "inclination": "6.866883218658827",
        "ascending_node_longitude": "219.9254430874863",
        "orbital_period": "708.455959927564",
        "perihelion_distance": ".9650872656998299",
        "perihelion_argument": "328.5600603656447",
        "aphelion_distance": "2.145480137376721",
        "perihelion_time": "2458899.857895036264",
        "mean_anomaly": "51.14101628935303",
        "mean_motion": ".5081473237049317",
        "equinox": "J2000",
        "orbit_class": {
            "orbit_class_type": "APO",
            "orbit_class_description": "Near-Earth asteroid orbits which cross the Earth’s orbit similar to that of 1862 Apollo",
            "orbit_class_range": "a (semi-major axis) > 1.0 AU; q (perihelion) < 1.017 AU"
        }
    },
    "is_sentry_object": false
}